{
  "norad_id": 43169,
  "name": "WEINA 1A",
  "history": [
    {
      "epoch": "2026-03-28T21:40:23.273760Z",
      "apogee_km": 566.3193183513149,
      "perigee_km": 563.5420912693908,
      "latitude_deg": -2.01883082580857e-05,
      "longitude_deg": 138.38287750687834,
      "height_km": 562.882993994117,
      "semi_major_axis_km": 6943.067704810353,
      "eccentricity": 0.0002,
      "inclination_deg": 34.9958,
      "raan_deg": 289.7967,
      "arg_perigee_deg": 46.0406,
      "mean_anomaly_deg": 314.0466,
      "mean_motion_rev_day": 15.00637039
    },
    {
      "epoch": "2026-03-28T21:40:23.274624Z",
      "apogee_km": 566.319110059283,
      "perigee_km": 563.5422995614217,
      "latitude_deg": 3.892981326862177e-05,
      "longitude_deg": 138.38295787771247,
      "height_km": 562.8831293234016,
      "semi_major_axis_km": 6943.067704810353,
      "eccentricity": 0.00019997,
      "inclination_deg": 34.9958,
      "raan_deg": 289.7967,
      "arg_perigee_deg": 46.0406,
      "mean_anomaly_deg": 314.0467,
      "mean_motion_rev_day": 15.00637039
    },
    {
      "epoch": "2026-03-30T05:36:28.236960Z",
      "apogee_km": 566.2149068130602,
      "perigee_km": 563.5836349271258,
      "latitude_deg": -8.94639982805515e-06,
      "longitude_deg": 9.966302197606387,
      "height_km": 563.1751590575359,
      "semi_major_axis_km": 6943.036270870093,
      "eccentricity": 0.00018949,
      "inclination_deg": 34.9955,
      "raan_deg": 281.7123,
      "arg_perigee_deg": 60.894,
      "mean_anomaly_deg": 299.1957,
      "mean_motion_rev_day": 15.0064723
    },
    {
      "epoch": "2026-03-30T15:11:17.568672Z",
      "apogee_km": 566.1827134913492,
      "perigee_km": 563.5971302656426,
      "latitude_deg": 3.847600588017231e-05,
      "longitude_deg": -136.558230585932,
      "height_km": 563.2792029603977,
      "semi_major_axis_km": 6943.026921878496,
      "eccentricity": 0.0001862,
      "inclination_deg": 34.9955,
      "raan_deg": 279.2867,
      "arg_perigee_deg": 65.9681,
      "mean_anomaly_deg": 294.1222,
      "mean_motion_rev_day": 15.00650261
    },
    {
      "epoch": "2026-03-30T21:34:30.421344Z",
      "apogee_km": 566.1716232238732,
      "perigee_km": 563.5953460428454,
      "latitude_deg": 6.469420233635592e-06,
      "longitude_deg": 125.75927064675051,
      "height_km": 563.3365422559752,
      "semi_major_axis_km": 6943.020484633359,
      "eccentricity": 0.00018553,
      "inclination_deg": 34.9956,
      "raan_deg": 277.6701,
      "arg_perigee_deg": 68.9502,
      "mean_anomaly_deg": 291.1404,
      "mean_motion_rev_day": 15.00652348
    },
    {
      "epoch": "2026-03-31T18:19:56.997696Z",
      "apogee_km": 566.100079640807,
      "perigee_km": 563.6283712045561,
      "latitude_deg": 1.5428330350274112e-05,
      "longitude_deg": 168.29107436230018,
      "height_km": 563.5771070312418,
      "semi_major_axis_km": 6943.001225422681,
      "eccentricity": 0.000178,
      "inclination_deg": 34.9954,
      "raan_deg": 272.4151,
      "arg_perigee_deg": 80.5582,
      "mean_anomaly_deg": 279.5327,
      "mean_motion_rev_day": 15.00658592
    },
    {
      "epoch": "2026-04-01T19:52:47.702496Z",
      "apogee_km": 566.0759757424548,
      "perigee_km": 563.6126059804565,
      "latitude_deg": -1.704323685151746e-05,
      "longitude_deg": 137.5627644110944,
      "height_km": 563.8524206019819,
      "semi_major_axis_km": 6942.981290861455,
      "eccentricity": 0.0001774,
      "inclination_deg": 34.9955,
      "raan_deg": 265.9473,
      "arg_perigee_deg": 94.3108,
      "mean_anomaly_deg": 265.7802,
      "mean_motion_rev_day": 15.00665055
    },
    {
      "epoch": "2026-04-02T16:38:13.546176Z",
      "apogee_km": 566.0580669712117,
      "perigee_km": 563.5884560061995,
      "latitude_deg": -1.3739260881085792e-05,
      "longitude_deg": -179.9026792419029,
      "height_km": 564.0640374390939,
      "semi_major_axis_km": 6942.960261488705,
      "eccentricity": 0.00017785,
      "inclination_deg": 34.9955,
      "raan_deg": 260.692,
      "arg_perigee_deg": 105.2709,
      "mean_anomaly_deg": 254.8195,
      "mean_motion_rev_day": 15.00671873
    },
    {
      "epoch": "2026-04-03T13:23:38.963904Z",
      "apogee_km": 566.0387386785005,
      "perigee_km": 563.5448386576109,
      "latitude_deg": -3.1522873290852786e-05,
      "longitude_deg": -137.3660737155822,
      "height_km": 564.2553934287248,
      "semi_major_axis_km": 6942.928788668055,
      "eccentricity": 0.0001796,
      "inclination_deg": 34.9955,
      "raan_deg": 255.437,
      "arg_perigee_deg": 116.0701,
      "mean_anomaly_deg": 244.0191,
      "mean_motion_rev_day": 15.00682077
    },
    {
      "epoch": "2026-04-04T03:45:51.677568Z",
      "apogee_km": 566.0394639559745,
      "perigee_km": 563.5096058508861,
      "latitude_deg": 4.112735207749574e-06,
      "longitude_deg": 2.852840053996566,
      "height_km": 564.3779267835854,
      "semi_major_axis_km": 6942.91153490343,
      "eccentricity": 0.00018219,
      "inclination_deg": 34.9955,
      "raan_deg": 251.799,
      "arg_perigee_deg": 122.9355,
      "mean_anomaly_deg": 237.1528,
      "mean_motion_rev_day": 15.00687671
    },
    {
      "epoch": "2026-04-05T11:41:52.653408Z",
      "apogee_km": 566.0855759756614,
      "perigee_km": 563.4043738145956,
      "latitude_deg": 2.6912953506369218e-05,
      "longitude_deg": -125.5474617627259,
      "height_km": 564.6850791186588,
      "semi_major_axis_km": 6942.881974895128,
      "eccentricity": 0.00019309,
      "inclination_deg": 34.9955,
      "raan_deg": 243.7142,
      "arg_perigee_deg": 139.8192,
      "mean_anomaly_deg": 220.2659,
      "mean_motion_rev_day": 15.00697255
    },
    {
      "epoch": "2026-04-05T19:40:52.774464Z",
      "apogee_km": 566.1001857022911,
      "perigee_km": 563.375662724532,
      "latitude_deg": 7.721337600592534e-06,
      "longitude_deg": 112.3532407475054,
      "height_km": 564.7473916707814,
      "semi_major_axis_km": 6942.874924213412,
      "eccentricity": 0.00019621,
      "inclination_deg": 34.9955,
      "raan_deg": 241.6933,
      "arg_perigee_deg": 143.3921,
      "mean_anomaly_deg": 216.6921,
      "mean_motion_rev_day": 15.00699541
    },
    {
      "epoch": "2026-04-07T17:59:04.734240Z",
      "apogee_km": 566.2131981763341,
      "perigee_km": 563.1944509858067,
      "latitude_deg": -4.491633501257247e-05,
      "longitude_deg": 124.17931869981501,
      "height_km": 565.0615271878081,
      "semi_major_axis_km": 6942.840824581071,
      "eccentricity": 0.0002174,
      "inclination_deg": 34.9952,
      "raan_deg": 229.9709,
      "arg_perigee_deg": 162.7348,
      "mean_anomaly_deg": 197.3433,
      "mean_motion_rev_day": 15.00710597
    },
    {
      "epoch": "2026-04-08T14:44:28.346208Z",
      "apogee_km": 566.2777106606882,
      "perigee_km": 563.1081699363431,
      "latitude_deg": 1.0154280959469194e-05,
      "longitude_deg": 166.72336951814125,
      "height_km": 565.1727258054616,
      "semi_major_axis_km": 6942.829940298515,
      "eccentricity": 0.00022826,
      "inclination_deg": 34.9951,
      "raan_deg": 224.7157,
      "arg_perigee_deg": 170.5454,
      "mean_anomaly_deg": 189.5297,
      "mean_motion_rev_day": 15.00714126
    },
    {
      "epoch": "2026-04-09T14:41:27.663072Z",
      "apogee_km": 566.3398394113574,
      "perigee_km": 563.010066798649,
      "latitude_deg": 1.4597665085056816e-05,
      "longitude_deg": 160.42903550218202,
      "height_km": 565.256633829993,
      "semi_major_axis_km": 6942.811953105003,
      "eccentricity": 0.0002398,
      "inclination_deg": 34.9951,
      "raan_deg": 218.6521,
      "arg_perigee_deg": 179.6087,
      "mean_anomaly_deg": 180.4623,
      "mean_motion_rev_day": 15.00719958
    },
    {
      "epoch": "2026-04-10T09:51:02.881728Z",
      "apogee_km": 566.399581342067,
      "perigee_km": 562.9254044758154,
      "latitude_deg": 1.9461825320765474e-05,
      "longitude_deg": -132.60556842125794,
      "height_km": 565.305639424186,
      "semi_major_axis_km": 6942.799492908941,
      "eccentricity": 0.0002502,
      "inclination_deg": 34.995,
      "raan_deg": 213.8011,
      "arg_perigee_deg": 186.4508,
      "mean_anomaly_deg": 173.6168,
      "mean_motion_rev_day": 15.00723998
    },
    {
      "epoch": "2026-04-11T14:35:25.468224Z",
      "apogee_km": 566.4951105867576,
      "perigee_km": 562.8071015448149,
      "latitude_deg": -1.861723256093429e-05,
      "longitude_deg": 147.84357099660903,
      "height_km": 565.3399361928267,
      "semi_major_axis_km": 6942.7881060657855,
      "eccentricity": 0.0002656,
      "inclination_deg": 34.995,
      "raan_deg": 206.5247,
      "arg_perigee_deg": 196.129,
      "mean_anomaly_deg": 163.9333,
      "mean_motion_rev_day": 15.0072769
    },
    {
      "epoch": "2026-04-12T22:31:23.594592Z",
      "apogee_km": 566.5986466446984,
      "perigee_km": 562.6829199749118,
      "latitude_deg": 3.053425609699652e-05,
      "longitude_deg": 19.45511250728712,
      "height_km": 565.3070851929297,
      "semi_major_axis_km": 6942.777783309805,
      "eccentricity": 0.000282,
      "inclination_deg": 34.995,
      "raan_deg": 198.4398,
      "arg_perigee_deg": 206.7381,
      "mean_anomaly_deg": 153.3182,
      "mean_motion_rev_day": 15.00731037
    },
    {
      "epoch": "2026-04-14T12:50:33.082368Z",
      "apogee_km": 566.6425487268607,
      "perigee_km": 562.6176877730677,
      "latitude_deg": -3.20175081933604e-05,
      "longitude_deg": 153.38987479079697,
      "height_km": 565.1491395057874,
      "semi_major_axis_km": 6942.7671182499635,
      "eccentricity": 0.00028986,
      "inclination_deg": 34.9947,
      "raan_deg": 188.7379,
      "arg_perigee_deg": 217.2965,
      "mean_anomaly_deg": 142.7541,
      "mean_motion_rev_day": 15.00734495
    }
  ]
}